{"type": "FeatureCollection", "features": [ {"type": "Feature", "properties": {"norad_id": 66623, "name": "STARLINK-35920", "group": "last-30-days", "lat": 28.011012749391902, "lon": -122.1066291333258, "alt_km": 343.2862624984391, "timestamp": "2025-12-07T03:52:31.204889+00:00", "meta": {"OBJECT_NAME": "STARLINK-35920", "OBJECT_ID": "2025-271G", "EPOCH": "2025-12-06T14:00:01.999872", "MEAN_MOTION": 15.74111426, "ECCENTRICITY": 0.0001211, "INCLINATION": 53.1575, "RA_OF_ASC_NODE": 217.2564, "ARG_OF_PERICENTER": 125.1816, "MEAN_ANOMALY": 232.6674, "EPHEMERIS_TYPE": 0, "CLASSIFICATION_TYPE": "U", "NORAD_CAT_ID": 66623, "ELEMENT_SET_NO": 999, "REV_AT_EPOCH": 325, "BSTAR": 0.0012250247, "MEAN_MOTION_DOT": 0.00182096, "MEAN_MOTION_DDOT": 0}, "tle": {"line1": "1 66623U 25271G   25340.58335648  .00182096  00000+0  12250-2 0  9993", "line2": "2 66623  53.1575 217.2564 0001211 125.1816 232.6674 15.74111426  3259"}}, "geometry": {"type": "Point", "coordinates": [-122.1066291333258, 28.011012749391902]}}, {"type": "Feature", "properties": {"norad_id": 66624, "name": "STARLINK-35927", "group": "last-30-days", "lat": 26.599642449790405, "lon": -123.55690928049496, "alt_km": 343.3250203253392, "timestamp": "2025-12-07T03:52:31.204901+00:00", "meta": {"OBJECT_NAME": "STARLINK-35927", "OBJECT_ID": "2025-271H", "EPOCH": "2025-12-06T14:00:01.999872", "MEAN_MOTION": 15.74092298, "ECCENTRICITY": 4.731e-05, "INCLINATION": 53.158, "RA_OF_ASC_NODE": 217.2603, "ARG_OF_PERICENTER": 86.4979, "MEAN_ANOMALY": 269.4596, "EPHEMERIS_TYPE": 0, "CLASSIFICATION_TYPE": "U", "NORAD_CAT_ID": 66624, "ELEMENT_SET_NO": 999, "REV_AT_EPOCH": 325, "BSTAR": 0.0012854436, "MEAN_MOTION_DOT": 0.00191161, "MEAN_MOTION_DDOT": 0}, "tle": {"line1": "1 66624U 25271H   25340.58335648  .00191161  00000+0  12854-2 0  9997", "line2": "2 66624  53.1580 217.2603 0000473  86.4979 269.4596 15.74092298  3254"}}, "geometry": {"type": "Point", "coordinates": [-123.55690928049496, 26.599642449790405]}}, {"type": "Feature", "properties": {"norad_id": 66625, "name": "STARLINK-35929", "group": "last-30-days", "lat": 29.395582155010544, "lon": -120.63071157838169, "alt_km": 342.9932398865685, "timestamp": "2025-12-07T03:52:31.204911+00:00", "meta": {"OBJECT_NAME": "STARLINK-35929", "OBJECT_ID": "2025-271J", "EPOCH": "2025-12-06T14:00:01.999872", "MEAN_MOTION": 15.74153174, "ECCENTRICITY": 0.00011357, "INCLINATION": 53.1579, "RA_OF_ASC_NODE": 217.2524, "ARG_OF_PERICENTER": 99.6254, "MEAN_ANOMALY": 260.1838, "EPHEMERIS_TYPE": 0, "CLASSIFICATION_TYPE": "U", "NORAD_CAT_ID": 66625, "ELEMENT_SET_NO": 999, "REV_AT_EPOCH": 325, "BSTAR": 0.00035463718, "MEAN_MOTION_DOT": 0.00051546, "MEAN_MOTION_DDOT": 0}, "tle": {"line1": "1 66625U 25271J   25340.58335648  .00051546  00000+0  35464-3 0  9993", "line2": "2 66625  53.1579 217.2524 0001135  99.6254 260.1838 15.74153174  3251"}}, "geometry": {"type": "Point", "coordinates": [-120.63071157838169, 29.395582155010544]}}, {"type": "Feature", "properties": {"norad_id": 66626, "name": "STARLINK-35902", "group": "last-30-days", "lat": 30.824251352254944, "lon": -119.04549005709394, "alt_km": 342.7980934358129, "timestamp": "2025-12-07T03:52:31.204922+00:00", "meta": {"OBJECT_NAME": "STARLINK-35902", "OBJECT_ID": "2025-271K", "EPOCH": "2025-12-06T14:00:01.999872", "MEAN_MOTION": 15.74242537, "ECCENTRICITY": 0.00010561, "INCLINATION": 53.1578, "RA_OF_ASC_NODE": 217.2478, "ARG_OF_PERICENTER": 101.5459, "MEAN_ANOMALY": 260.1573, "EPHEMERIS_TYPE": 0, "CLASSIFICATION_TYPE": "U", "NORAD_CAT_ID": 66626, "ELEMENT_SET_NO": 999, "REV_AT_EPOCH": 325, "BSTAR": -0.00021287478, "MEAN_MOTION_DOT": -0.0003176, "MEAN_MOTION_DDOT": 0}, "tle": {"line1": "1 66626U 25271K   25340.58335648 -.00031760  00000+0 -21287-3 0  9990", "line2": "2 66626  53.1578 217.2478 0001056 101.5459 260.1573 15.74242537  3259"}}, "geometry": {"type": "Point", "coordinates": [-119.04549005709394, 30.824251352254944]}}, {"type": "Feature", "properties": {"norad_id": 66627, "name": "STARLINK-35904", "group": "last-30-days", "lat": 32.22429807853464, "lon": -117.4222317986692, "alt_km": 342.6070333972075, "timestamp": "2025-12-07T03:52:31.204932+00:00", "meta": {"OBJECT_NAME": "STARLINK-35904", "OBJECT_ID": "2025-271L", "EPOCH": "2025-12-06T14:00:01.999872", "MEAN_MOTION": 15.74232189, "ECCENTRICITY": 8.223e-05, "INCLINATION": 53.1577, "RA_OF_ASC_NODE": 217.2437, "ARG_OF_PERICENTER": 115.4404, "MEAN_ANOMALY": 248.1877, "EPHEMERIS_TYPE": 0, "CLASSIFICATION_TYPE": "U", "NORAD_CAT_ID": 66627, "ELEMENT_SET_NO": 999, "REV_AT_EPOCH": 309, "BSTAR": 0.00014590286, "MEAN_MOTION_DOT": 0.00020831, "MEAN_MOTION_DDOT": 0}, "tle": {"line1": "1 66627U 25271L   25340.58335648  .00020831  00000+0  14590-3 0  9995", "line2": "2 66627  53.1577 217.2437 0000822 115.4404 248.1877 15.74232189  3095"}}, "geometry": {"type": "Point", "coordinates": [-117.4222317986692, 32.22429807853464]}}, {"type": "Feature", "properties": {"norad_id": 66628, "name": "STARLINK-35862", "group": "last-30-days", "lat": 33.49525782608079, "lon": -115.88187045449168, "alt_km": 342.4289844396044, "timestamp": "2025-12-07T03:52:31.204942+00:00", "meta": {"OBJECT_NAME": "STARLINK-35862", "OBJECT_ID": "2025-271M", "EPOCH": "2025-12-06T14:00:01.999872", "MEAN_MOTION": 15.7415062, "ECCENTRICITY": 6.018e-05, "INCLINATION": 53.1576, "RA_OF_ASC_NODE": 217.2397, "ARG_OF_PERICENTER": 100.9794, "MEAN_ANOMALY": 264.5789, "EPHEMERIS_TYPE": 0, "CLASSIFICATION_TYPE": "U", "NORAD_CAT_ID": 66628, "ELEMENT_SET_NO": 999, "REV_AT_EPOCH": 325, "BSTAR": 0.00043106431, "MEAN_MOTION_DOT": 0.00062868, "MEAN_MOTION_DDOT": 0}, "tle": {"line1": "1 66628U 25271M   25340.58335648  .00062868  00000+0  43106-3 0  9997", "line2": "2 66628  53.1576 217.2397 0000601 100.9794 264.5789 15.74150620  3257"}}, "geometry": {"type": "Point", "coordinates": [-115.88187045449168, 33.49525782608079]}}, {"type": "Feature", "properties": {"norad_id": 66629, "name": "STARLINK-35956", "group": "last-30-days", "lat": 34.810613838287516, "lon": -114.21236582780648, "alt_km": 341.9739642572795, "timestamp": "2025-12-07T03:52:31.204952+00:00", "meta": {"OBJECT_NAME": "STARLINK-35956", "OBJECT_ID": "2025-271N", "EPOCH": "2025-12-06T14:00:01.999872", "MEAN_MOTION": 15.74159363, "ECCENTRICITY": 0.00012078, "INCLINATION": 53.1577, "RA_OF_ASC_NODE": 217.2362, "ARG_OF_PERICENTER": 97.1491, "MEAN_ANOMALY": 270.3239, "EPHEMERIS_TYPE": 0, "CLASSIFICATION_TYPE": "U", "NORAD_CAT_ID": 66629, "ELEMENT_SET_NO": 999, "REV_AT_EPOCH": 325, "BSTAR": 0.00031518177, "MEAN_MOTION_DOT": 0.00045721, "MEAN_MOTION_DDOT": 0}, "tle": {"line1": "1 66629U 25271N   25340.58335648  .00045721  00000+0  31518-3 0  9991", "line2": "2 66629  53.1577 217.2362 0001207  97.1491 270.3239 15.74159363  3253"}}, "geometry": {"type": "Point", "coordinates": [-114.21236582780648, 34.810613838287516]}}, {"type": "Feature", "properties": {"norad_id": 66630, "name": "STARLINK-35949", "group": "last-30-days", "lat": 36.10720446154557, "lon": -112.48318260728394, "alt_km": 341.7708025406937, "timestamp": "2025-12-07T03:52:31.204962+00:00", "meta": {"OBJECT_NAME": "STARLINK-35949", "OBJECT_ID": "2025-271P", "EPOCH": "2025-12-06T14:00:01.999872", "MEAN_MOTION": 15.7419073, "ECCENTRICITY": 9.397e-05, "INCLINATION": 53.1576, "RA_OF_ASC_NODE": 217.2317, "ARG_OF_PERICENTER": 78.8433, "MEAN_ANOMALY": 290.5255, "EPHEMERIS_TYPE": 0, "CLASSIFICATION_TYPE": "U", "NORAD_CAT_ID": 66630, "ELEMENT_SET_NO": 999, "REV_AT_EPOCH": 325, "BSTAR": 2.1608972e-05, "MEAN_MOTION_DOT": 2.537e-05, "MEAN_MOTION_DDOT": 0}, "tle": {"line1": "1 66630U 25271P   25340.58335648  .00002537  00000+0  21609-4 0  9992", "line2": "2 66630  53.1576 217.2317 0000939  78.8433 290.5255 15.74190730  3252"}}, "geometry": {"type": "Point", "coordinates": [-112.48318260728394, 36.10720446154557]}}, {"type": "Feature", "properties": {"norad_id": 66631, "name": "STARLINK-35965", "group": "last-30-days", "lat": 37.38613586407148, "lon": -110.68437241761684, "alt_km": 341.46180220622045, "timestamp": "2025-12-07T03:52:31.204979+00:00", "meta": {"OBJECT_NAME": "STARLINK-35965", "OBJECT_ID": "2025-271Q", "EPOCH": "2025-12-06T14:00:01.999872", "MEAN_MOTION": 15.74133302, "ECCENTRICITY": 0.00010845, "INCLINATION": 53.1579, "RA_OF_ASC_NODE": 217.2279, "ARG_OF_PERICENTER": 92.5114, "MEAN_ANOMALY": 278.8019, "EPHEMERIS_TYPE": 0, "CLASSIFICATION_TYPE": "U", "NORAD_CAT_ID": 66631, "ELEMENT_SET_NO": 999, "REV_AT_EPOCH": 325, "BSTAR": 0.00061528222, "MEAN_MOTION_DOT": 0.00090232, "MEAN_MOTION_DDOT": 0}, "tle": {"line1": "1 66631U 25271Q   25340.58335648  .00090232  00000+0  61528-3 0  9995", "line2": "2 66631  53.1579 217.2279 0001084  92.5114 278.8019 15.74133302  3253"}}, "geometry": {"type": "Point", "coordinates": [-110.68437241761684, 37.38613586407148]}}, {"type": "Feature", "properties": {"norad_id": 66632, "name": "STARLINK-35973", "group": "last-30-days", "lat": 38.62680858745479, "lon": -108.83870190059933, "alt_km": 341.61691028029054, "timestamp": "2025-12-07T03:52:31.204990+00:00", "meta": {"OBJECT_NAME": "STARLINK-35973", "OBJECT_ID": "2025-271R", "EPOCH": "2025-12-06T14:00:01.999872", "MEAN_MOTION": 15.74161824, "ECCENTRICITY": 5.707e-05, "INCLINATION": 53.1577, "RA_OF_ASC_NODE": 217.2237, "ARG_OF_PERICENTER": 100.8832, "MEAN_ANOMALY": 272.337, "EPHEMERIS_TYPE": 0, "CLASSIFICATION_TYPE": "U", "NORAD_CAT_ID": 66632, "ELEMENT_SET_NO": 999, "REV_AT_EPOCH": 319, "BSTAR": 0.00028305043, "MEAN_MOTION_DOT": 0.00040977, "MEAN_MOTION_DDOT": 0}, "tle": {"line1": "1 66632U 25271R   25340.58335648  .00040977  00000+0  28305-3 0  9993", "line2": "2 66632  53.1577 217.2237 0000570 100.8832 272.3370 15.74161824  3197"}}, "geometry": {"type": "Point", "coordinates": [-108.83870190059933, 38.62680858745479]}}]}